STARLINK-5601
1 55744U 23028D   26092.70271668  .00084364  00000+0  68781-2 0  9992
2 55744  70.0009 184.0494 0004249 292.9066  67.1644 14.98970436169630
STARLINK-5606
1 55767U 23028AC  26092.49034637 -.00098960  00000+0 -82651-2 0  9997
2 55767  69.9995 164.6340 0006300 265.9002  94.1437 14.98954694170078
